[Satellite]
VERSION=1.1
NAME=WORLDVIEW-1 (WV-1)
NICKNAME=WORLDVIEW-1 (WV-1)
TLE1=1 32060U 07041A   17186.24903014  .00000766  00000-0  33939-4 0  9999
TLE2=2 32060  97.3883 306.0076 0002290  65.8430 352.3303 15.24580483545005
